STARLINK-36462          
1 67321U 26002S   26016.58336806 -.01526141  00000+0 -74238-2 0  9990
2 67321  42.9972 265.9783 0001696 271.2079 184.6279 15.84173556  3043
STARLINK-36434          
1 67322U 26002T   26016.58336806 -.01510469  00000+0 -73434-2 0  9994
2 67322  42.9973 265.9832 0001675 272.4403 181.4302 15.84156639  3046
STARLINK-36497          
1 67323U 26002U   26016.58336806 -.01542760  00000+0 -75244-2 0  9995
2 67323  42.9975 265.9720 0001669 271.0340 187.2915 15.84150358  3106
STARLINK-36471          
1 67324U 26002V   26016.58336806 -.01571899  00000+0 -77300-2 0  9996
2 67324  42.9979 265.9577 0001690 269.5934 194.5128 15.84033930  3042
STARLINK-36473          
1 67325U 26002W   26016.58336806 -.01561594  00000+0 -76558-2 0  9992
2 67325  42.9975 265.9643 0001686 270.3574 191.0679 15.84078207  3193
STARLINK-36430          
1 67326U 26002X   26016.58336806 -.01591915  00000+0 -78807-2 0  9992
2 67326  42.9974 265.9436 0001618 266.8771 202.6575 15.83934676  3191
STARLINK-36501          
1 67327U 26002Y   26016.58336806 -.01584909  00000+0 -78187-2 0  9999
2 67327  42.9977 265.9510 0001638 269.9505 196.7905 15.83993520  3046
STARLINK-36489          
1 67328U 26002Z   26016.58336806 -.01607636  00000+0 -79959-2 0  9991
2 67328  42.9972 265.9362 0001675 270.2358 202.2542 15.83866776  3197
STARLINK-36496          
1 67329U 26002AA  26016.58336806 -.01627031  00000+0 -81371-2 0  9994
2 67329  42.9973 265.9230 0001612 267.0124 210.5827 15.83790170  3023
STARLINK-36483          
1 67330U 26002AB  26016.58336806 -.01654760  00000+0 -83568-2 0  9995
2 67330  42.9974 265.9078 0001608 266.8915 216.6126 15.83641499  3192
STARLINK-36494          
1 67331U 26002AC  26016.58336806 -.01619524  00000+0 -80826-2 0  9999
2 67331  42.9973 265.9291 0001667 262.1110 213.0486 15.83818565  3190
STARLINK-36492          
1 67332U 26002AD  26016.58336806 -.01647235  00000+0 -83110-2 0  9999
2 67332  42.9974 265.9131 0001652 269.0146 212.3403 15.83645835  3193
