CCSDS_OMM_VERS = 2.0
CREATION_DATE  = 
ORIGINATOR     = 

OBJECT_NAME    = STARLINK-36462
OBJECT_ID      = 2026-002S
CENTER_NAME    = EARTH
REF_FRAME      = TEME
TIME_SYSTEM    = UTC
MEAN_ELEMENT_THEORY = SGP/SGP4

EPOCH          = 2026-01-16T14:00:03.000384
MEAN_MOTION    = 15.84173556
ECCENTRICITY   = .0001696
INCLINATION    = 42.9972
RA_OF_ASC_NODE = 265.9783
ARG_OF_PERICENTER = 271.2079
MEAN_ANOMALY   = 184.6279

EPHEMERIS_TYPE = 0
CLASSIFICATION_TYPE = U
NORAD_CAT_ID   = 67321
ELEMENT_SET_NO = 999
REV_AT_EPOCH   = 304
BSTAR          = -.74237806E-2
MEAN_MOTION_DOT = -.1526141E-1
MEAN_MOTION_DDOT = 0

CCSDS_OMM_VERS = 2.0
CREATION_DATE  = 
ORIGINATOR     = 

OBJECT_NAME    = STARLINK-36434
OBJECT_ID      = 2026-002T
CENTER_NAME    = EARTH
REF_FRAME      = TEME
TIME_SYSTEM    = UTC
MEAN_ELEMENT_THEORY = SGP/SGP4

EPOCH          = 2026-01-16T14:00:03.000384
MEAN_MOTION    = 15.84156639
ECCENTRICITY   = .00016755
INCLINATION    = 42.9973
RA_OF_ASC_NODE = 265.9832
ARG_OF_PERICENTER = 272.4403
MEAN_ANOMALY   = 181.4302

EPHEMERIS_TYPE = 0
CLASSIFICATION_TYPE = U
NORAD_CAT_ID   = 67322
ELEMENT_SET_NO = 999
REV_AT_EPOCH   = 304
BSTAR          = -.73433808E-2
MEAN_MOTION_DOT = -.1510469E-1
MEAN_MOTION_DDOT = 0

CCSDS_OMM_VERS = 2.0
CREATION_DATE  = 
ORIGINATOR     = 

OBJECT_NAME    = STARLINK-36497
OBJECT_ID      = 2026-002U
CENTER_NAME    = EARTH
REF_FRAME      = TEME
TIME_SYSTEM    = UTC
MEAN_ELEMENT_THEORY = SGP/SGP4

EPOCH          = 2026-01-16T14:00:03.000384
MEAN_MOTION    = 15.84150358
ECCENTRICITY   = .00016691
INCLINATION    = 42.9975
RA_OF_ASC_NODE = 265.9720
ARG_OF_PERICENTER = 271.0340
MEAN_ANOMALY   = 187.2915

EPHEMERIS_TYPE = 0
CLASSIFICATION_TYPE = U
NORAD_CAT_ID   = 67323
ELEMENT_SET_NO = 999
REV_AT_EPOCH   = 310
BSTAR          = -.7524368E-2
MEAN_MOTION_DOT = -.154276E-1
MEAN_MOTION_DDOT = 0

CCSDS_OMM_VERS = 2.0
CREATION_DATE  = 
ORIGINATOR     = 

OBJECT_NAME    = STARLINK-36471
OBJECT_ID      = 2026-002V
CENTER_NAME    = EARTH
REF_FRAME      = TEME
TIME_SYSTEM    = UTC
MEAN_ELEMENT_THEORY = SGP/SGP4

EPOCH          = 2026-01-16T14:00:03.000384
MEAN_MOTION    = 15.84033930
ECCENTRICITY   = .00016903
INCLINATION    = 42.9979
RA_OF_ASC_NODE = 265.9577
ARG_OF_PERICENTER = 269.5934
MEAN_ANOMALY   = 194.5128

EPHEMERIS_TYPE = 0
CLASSIFICATION_TYPE = U
NORAD_CAT_ID   = 67324
ELEMENT_SET_NO = 999
REV_AT_EPOCH   = 304
BSTAR          = -.77299801E-2
MEAN_MOTION_DOT = -.1571899E-1
MEAN_MOTION_DDOT = 0

CCSDS_OMM_VERS = 2.0
CREATION_DATE  = 
ORIGINATOR     = 

OBJECT_NAME    = STARLINK-36473
OBJECT_ID      = 2026-002W
CENTER_NAME    = EARTH
REF_FRAME      = TEME
TIME_SYSTEM    = UTC
MEAN_ELEMENT_THEORY = SGP/SGP4

EPOCH          = 2026-01-16T14:00:03.000384
MEAN_MOTION    = 15.84078207
ECCENTRICITY   = .00016869
INCLINATION    = 42.9975
RA_OF_ASC_NODE = 265.9643
ARG_OF_PERICENTER = 270.3574
MEAN_ANOMALY   = 191.0679

EPHEMERIS_TYPE = 0
CLASSIFICATION_TYPE = U
NORAD_CAT_ID   = 67325
ELEMENT_SET_NO = 999
REV_AT_EPOCH   = 319
BSTAR          = -.76557524E-2
MEAN_MOTION_DOT = -.1561594E-1
MEAN_MOTION_DDOT = 0

CCSDS_OMM_VERS = 2.0
CREATION_DATE  = 
ORIGINATOR     = 

OBJECT_NAME    = STARLINK-36430
OBJECT_ID      = 2026-002X
CENTER_NAME    = EARTH
REF_FRAME      = TEME
TIME_SYSTEM    = UTC
MEAN_ELEMENT_THEORY = SGP/SGP4

EPOCH          = 2026-01-16T14:00:03.000384
MEAN_MOTION    = 15.83934676
ECCENTRICITY   = .00016189
INCLINATION    = 42.9974
RA_OF_ASC_NODE = 265.9436
ARG_OF_PERICENTER = 266.8771
MEAN_ANOMALY   = 202.6575

EPHEMERIS_TYPE = 0
CLASSIFICATION_TYPE = U
NORAD_CAT_ID   = 67326
ELEMENT_SET_NO = 999
REV_AT_EPOCH   = 319
BSTAR          = -.78807134E-2
MEAN_MOTION_DOT = -.1591915E-1
MEAN_MOTION_DDOT = 0

CCSDS_OMM_VERS = 2.0
CREATION_DATE  = 
ORIGINATOR     = 

OBJECT_NAME    = STARLINK-36501
OBJECT_ID      = 2026-002Y
CENTER_NAME    = EARTH
REF_FRAME      = TEME
TIME_SYSTEM    = UTC
MEAN_ELEMENT_THEORY = SGP/SGP4

EPOCH          = 2026-01-16T14:00:03.000384
MEAN_MOTION    = 15.83993520
ECCENTRICITY   = .00016386
INCLINATION    = 42.9977
RA_OF_ASC_NODE = 265.9510
ARG_OF_PERICENTER = 269.9505
MEAN_ANOMALY   = 196.7905

EPHEMERIS_TYPE = 0
CLASSIFICATION_TYPE = U
NORAD_CAT_ID   = 67327
ELEMENT_SET_NO = 999
REV_AT_EPOCH   = 304
BSTAR          = -.78186696E-2
MEAN_MOTION_DOT = -.1584909E-1
MEAN_MOTION_DDOT = 0

CCSDS_OMM_VERS = 2.0
CREATION_DATE  = 
ORIGINATOR     = 

OBJECT_NAME    = STARLINK-36489
OBJECT_ID      = 2026-002Z
CENTER_NAME    = EARTH
REF_FRAME      = TEME
TIME_SYSTEM    = UTC
MEAN_ELEMENT_THEORY = SGP/SGP4

EPOCH          = 2026-01-16T14:00:03.000384
MEAN_MOTION    = 15.83866776
ECCENTRICITY   = .00016755
INCLINATION    = 42.9972
RA_OF_ASC_NODE = 265.9362
ARG_OF_PERICENTER = 270.2358
MEAN_ANOMALY   = 202.2542

EPHEMERIS_TYPE = 0
CLASSIFICATION_TYPE = U
NORAD_CAT_ID   = 67328
ELEMENT_SET_NO = 999
REV_AT_EPOCH   = 319
BSTAR          = -.79958802E-2
MEAN_MOTION_DOT = -.1607636E-1
MEAN_MOTION_DDOT = 0

CCSDS_OMM_VERS = 2.0
CREATION_DATE  = 
ORIGINATOR     = 

OBJECT_NAME    = STARLINK-36496
OBJECT_ID      = 2026-002AA
CENTER_NAME    = EARTH
REF_FRAME      = TEME
TIME_SYSTEM    = UTC
MEAN_ELEMENT_THEORY = SGP/SGP4

EPOCH          = 2026-01-16T14:00:03.000384
MEAN_MOTION    = 15.83790170
ECCENTRICITY   = .00016122
INCLINATION    = 42.9973
RA_OF_ASC_NODE = 265.9230
ARG_OF_PERICENTER = 267.0124
MEAN_ANOMALY   = 210.5827

EPHEMERIS_TYPE = 0
CLASSIFICATION_TYPE = U
NORAD_CAT_ID   = 67329
ELEMENT_SET_NO = 999
REV_AT_EPOCH   = 302
BSTAR          = -.81371226E-2
MEAN_MOTION_DOT = -.1627031E-1
MEAN_MOTION_DDOT = 0

CCSDS_OMM_VERS = 2.0
CREATION_DATE  = 
ORIGINATOR     = 

OBJECT_NAME    = STARLINK-36483
OBJECT_ID      = 2026-002AB
CENTER_NAME    = EARTH
REF_FRAME      = TEME
TIME_SYSTEM    = UTC
MEAN_ELEMENT_THEORY = SGP/SGP4

EPOCH          = 2026-01-16T14:00:03.000384
MEAN_MOTION    = 15.83641499
ECCENTRICITY   = .00016084
INCLINATION    = 42.9974
RA_OF_ASC_NODE = 265.9078
ARG_OF_PERICENTER = 266.8915
MEAN_ANOMALY   = 216.6126

EPHEMERIS_TYPE = 0
CLASSIFICATION_TYPE = U
NORAD_CAT_ID   = 67330
ELEMENT_SET_NO = 999
REV_AT_EPOCH   = 319
BSTAR          = -.83567963E-2
MEAN_MOTION_DOT = -.165476E-1
MEAN_MOTION_DDOT = 0

CCSDS_OMM_VERS = 2.0
CREATION_DATE  = 
ORIGINATOR     = 

OBJECT_NAME    = STARLINK-36494
OBJECT_ID      = 2026-002AC
CENTER_NAME    = EARTH
REF_FRAME      = TEME
TIME_SYSTEM    = UTC
MEAN_ELEMENT_THEORY = SGP/SGP4

EPOCH          = 2026-01-16T14:00:03.000384
MEAN_MOTION    = 15.83818565
ECCENTRICITY   = .00016672
INCLINATION    = 42.9973
RA_OF_ASC_NODE = 265.9291
ARG_OF_PERICENTER = 262.1110
MEAN_ANOMALY   = 213.0486

EPHEMERIS_TYPE = 0
CLASSIFICATION_TYPE = U
NORAD_CAT_ID   = 67331
ELEMENT_SET_NO = 999
REV_AT_EPOCH   = 319
BSTAR          = -.80826207E-2
MEAN_MOTION_DOT = -.1619524E-1
MEAN_MOTION_DDOT = 0

CCSDS_OMM_VERS = 2.0
CREATION_DATE  = 
ORIGINATOR     = 

OBJECT_NAME    = STARLINK-36492
OBJECT_ID      = 2026-002AD
CENTER_NAME    = EARTH
REF_FRAME      = TEME
TIME_SYSTEM    = UTC
MEAN_ELEMENT_THEORY = SGP/SGP4

EPOCH          = 2026-01-16T14:00:03.000384
MEAN_MOTION    = 15.83645835
ECCENTRICITY   = .00016529
INCLINATION    = 42.9974
RA_OF_ASC_NODE = 265.9131
ARG_OF_PERICENTER = 269.0146
MEAN_ANOMALY   = 212.3403

EPHEMERIS_TYPE = 0
CLASSIFICATION_TYPE = U
NORAD_CAT_ID   = 67332
ELEMENT_SET_NO = 999
REV_AT_EPOCH   = 319
BSTAR          = -.83110166E-2
MEAN_MOTION_DOT = -.1647235E-1
MEAN_MOTION_DDOT = 0

